SCD 1                   
1 22490U 93009B   24022.97895372  .00000681  00000+0  13801-3 0  9998
2 22490  24.9681 214.0238 0042469 230.1355 260.5802 14.45134537634185
TECHSAT 1B (GO-32)      
1 25397U 98043D   24024.49450351  .00000247  00000+0  12744-3 0  9996
2 25397  98.9018 349.2221 0001033 166.3434 193.7772 14.23975401327048
SCD 2                   
1 25504U 98060A   24022.50653483  .00000809  00000+0  17790-3 0  9996
2 25504  24.9965  75.3859 0016879 223.7458 273.1701 14.44622629333372
LANDSAT 7               
1 25682U 99020A   24024.47153563  .00000915  00000+0  19794-3 0  9996
2 25682  97.9052  57.9900 0001668  88.3089  17.5174 14.60432308318079
DLR-TUBSAT              
1 25757U 99029B   24024.43790860  .00000340  00000+0  96175-4 0  9992
2 25757  98.5662 345.3313 0015267 129.0927 231.1628 14.51801127306391
TERRA                   
1 25994U 99068A   24024.45340091  .00001027  00000+0  22552-3 0  9997
2 25994  98.0688  92.0922 0003119  94.7776 354.3089 14.59554856282059
MAROC-TUBSAT            
1 27004U 01056D   24023.96189126 -.00000012  00000+0  38786-4 0  9997
2 27004  99.7081 176.9888 0019296 225.3172 246.8864 13.70193392106323
AQUA                    
1 27424U 02022A   24024.48001576  .00002098  00000+0  45894-3 0  9999
2 27424  98.3142 333.5163 0001053 113.6128 359.1829 14.58795016155614
IRS-P6 (RESOURCESAT-1)  
1 28051U 03046A   24024.10518519  .00000697  00000+0  25101-3 0  9994
2 28051  98.3255  86.8022 0063333  80.7303 339.9636 14.35493722 54980
SHIYAN 1 (SY-1)         
1 28220U 04012A   24024.48738786  .00009700  00000+0  61872-3 0  9996
2 28220  97.9786  46.3548 0010369 153.7680 206.4074 15.08881994 78338
AURA                    
1 28376U 04026A   24023.91691224  .00001790  00000+0  39835-3 0  9990
2 28376  98.2361 329.9532 0001496  98.5293 261.6076 14.58138121 38504
IRS-P5 (CARTOSAT-1)     
1 28649U 05017A   24023.82407234  .00002609  00000+0  30278-3 0  9992
2 28649  97.6373  73.1336 0002727  86.6974 273.4554 14.86218586 13561
SINAH 1                 
1 28893U 05043D   24023.88850738  .00000877  00000+0  18218-3 0  9994
2 28893  98.1744 148.9998 0015752 135.0990 225.1489 14.62465077972494
EROS B                  
1 29079U 06014A   24024.44403641  .00033136  00000+0  13338-2 0  9991
2 29079  97.3325 143.5541 0007306 346.5122  13.5919 15.24783064985594
RESURS-DK 1             
1 29228U 06021A   24023.96542034  .00003307  00000+0  23180-3 0  9995
2 29228  69.9359  73.9008 0007377 256.3465 103.6876 15.06217685970477
ARIRANG-2 (KOMPSAT-2)   
1 29268U 06031A   24024.51244672  .00000771  00000+0  15771-3 0  9998
2 29268  97.8788 239.3248 0014158 330.4292  88.4070 14.63378643933589
LAPAN-TUBSAT            
1 29709U 07001A   24024.49529332  .00001412  00000+0  17773-3 0  9999
2 29709  98.0506 358.2844 0013293 145.8727 214.3344 14.83610564921352
CARTOSAT-2 (IRS-P7)     
1 29710U 07001B   24024.44436336  .00376348  60556-4  79810-3 0  9997
2 29710  97.8767 194.2025 0030716  96.0691 264.4086 15.97831978926966
HAIYANG-1B              
1 31113U 07010A   24023.89585297  .00000226  00000+0  10266-3 0  9998
2 31113  98.2947  32.5718 0012527 277.9214  82.0548 14.30531265875462
COSMO-SKYMED 1          
1 31598U 07023A   24024.46094223  .00001282  00000+0  16756-3 0  9990
2 31598  97.8808 209.7387 0001489  94.1769 265.9614 14.82148904899765
TERRASAR-X              
1 31698U 07026A   24023.60476551  .00002886  00000+0  14055-3 0  9998
2 31698  97.4457  32.8308 0001920  97.6510 262.4942 15.19155846920295
WORLDVIEW-1 (WV-1)      
1 32060U 07041A   24023.89090684  .00013772  00000+0  55850-3 0  9993
2 32060  97.3857 145.4268 0002876 155.6945 204.4429 15.24740050909674
YAOGAN 3                
1 32289U 07055A   24024.50907455  .00003708  00000+0  45024-3 0  9993
2 32289  97.9024  51.1985 0001811  82.6406 277.5014 14.84143167875862
COSMO-SKYMED 2          
1 32376U 07059A   24024.49470121  .00001350  00000+0  17617-3 0  9995
2 32376  97.8806 209.7716 0001467  82.8357 277.3023 14.82145401872511
RADARSAT-2              
1 32382U 07061A   24024.47209852  .00000196  00000+0  93087-4 0  9997
2 32382  98.5789  32.9181 0001180  89.4999 270.6319 14.29985883841051
CARTOSAT-2A             
1 32783U 08021A   24024.43345560  .00001646  00000+0  23092-3 0  9991
2 32783  97.8881  85.9492 0013491  71.8988 288.3692 14.78733690849616
HUANJING 1A (HJ-1A)     
1 33320U 08041A   24024.50339143  .00002569  00000+0  35144-3 0  9995
2 33320  97.6353  38.7189 0021842 121.2249 239.1108 14.79183524828961
HUANJING 1B (HJ-1B)     
1 33321U 08041B   24024.48011415  .00001892  00000+0  25544-3 0  9993
2 33321  97.6337  43.2075 0039014 166.6749 193.5504 14.79687835828975
GEOEYE 1                
1 33331U 08042A   24024.45899219  .00000771  00000+0  15503-3 0  9997
2 33331  98.0636  99.4943 0005667 259.5681 100.4883 14.64306444822131
THEOS                   
1 33396U 08049A   24024.43900065  .00000186  00000+0  10788-3 0  9995
2 33396  98.6779  93.2913 0001059  88.7265 271.4033 14.20022170793839
COSMO-SKYMED 3          
1 33412U 08054A   24024.48784051  .00006902  00000+0  61933-3 0  9990
2 33412  97.8800 220.1580 0016186 341.6890  18.3746 14.95967338825647
YAOGAN 4                
1 33446U 08061A   24024.42100875  .00002863  00000+0  39270-3 0  9996
2 33446  97.8708 319.2228 0016145  39.8189 320.4204 14.79096583816151
GOSAT (IBUKI)           
1 33492U 09002A   24023.89308831 -.00001825  00000+0 -31335-3 0  9998
2 33492  98.0260 138.2361 0001110  89.3774 270.7557 14.67569504803082
YAOGAN 6                
1 34839U 09021A   24024.47307257  .00021290  00000+0  49902-3 0  9996
2 34839  97.1541 353.9346 0019624 355.1057   4.9996 15.41897974821112
DEIMOS-1                
1 35681U 09041A   24024.51861395  .00001417  00000+0  22794-3 0  9996
2 35681  97.6756 214.2385 0002606 110.9922 249.1565 14.72962160778011
DUBAISAT-1              
1 35682U 09041B   24024.34608077  .00002465  00000+0  41015-3 0  9995
2 35682  97.8818 165.0008 0011236   4.0444 356.0852 14.70905907776344
OCEANSAT-2              
1 35931U 09051A   24024.43443369  .00000013  00000+0  34615-4 0  9990
2 35931  98.2870  87.0742 0016957 180.8083 179.3059 13.99421700756975
WORLDVIEW-2 (WV-2)      
1 35946U 09055A   24024.46646894  .00000394  00000+0  14592-3 0  9994
2 35946  98.4289 100.1798 0001537  33.6217 326.5067 14.37587943750094
SMOS                    
1 36036U 09059A   24024.50977486  .00000785  00000+0  26433-3 0  9999
2 36036  98.4396 213.5487 0000933  78.5129 281.6164 14.39787419747735
YAOGAN 7                
1 36110U 09069A   24024.21254392  .00001265  00000+0  19090-3 0  9990
2 36110  98.1272 259.4231 0025168 336.0548  23.9488 14.75926040760509
TANDEM-X                
1 36605U 10030A   24023.60476655  .00002836  00000+0  13815-3 0  9993
2 36605  97.4448  32.8305 0001890  81.2965 278.8483 15.19156065753710
CARTOSAT-2B             
1 36795U 10035A   24024.47036274  .00001648  00000+0  23146-3 0  9991
2 36795  97.8823  85.7274 0013448 142.5743 217.6407 14.78681133730669
YAOGAN 10               
1 36834U 10038A   24024.50665163  .00001508  00000+0  19483-3 0  9991
2 36834  97.9574  42.4332 0001631  85.0845  36.3786 14.82414092727561
COSMO-SKYMED 4          
1 37216U 10060A   24024.50736156  .00001224  00000+0  16029-3 0  9990
2 37216  97.8808 209.7846 0001456  81.5050 278.6328 14.82165842715068
RESOURCESAT-2           
1 37387U 11015A   24024.46340373  .00000359  00000+0  18307-3 0  9996
2 37387  98.5970  94.1361 0004667 163.4301 196.7030 14.21683892662423
HAIYANG-2A              
1 37781U 11043A   24024.49735812  .00000031  00000+0  73324-4 0  9992
2 37781  99.3249  30.3605 0001527  95.3476 264.7850 13.78765660626397
RASAT                   
1 37791U 11044D   24024.50041729  .00001243  00000+0  23488-3 0  9994
2 37791  98.0819 118.2974 0022718  81.8494 334.8262 14.65995721664946
SRMSAT                  
1 37841U 11058D   24022.11170439  .00000590  00000+0  17860-3 0  9992
2 37841  19.9733 326.2691 0011660 277.3545 199.8396 14.11021568633762
YAOGAN 13               
1 37941U 11072A   24024.50024324  .00025571  00000+0  73820-3 0  9999
2 37941  97.7065   0.5001 0003598 113.2529 246.9093 15.35660146674214
PLEIADES 1A             
1 38012U 11076F   24024.45753137  .00000901  00000+0  20362-3 0  9991
2 38012  98.1784 101.1004 0001233  80.4592 351.6340 14.58540515644494
ZIYUAN 1-02C (ZY 1-02C) 
1 38038U 11079A   24024.49306809  .00000951  00000+0  33841-3 0  9997
2 38038  98.5171  94.6269 0007339  46.3441  10.4265 14.36563570633599
ZIYUAN 3-1 (ZY 3-1)     
1 38046U 12001A   24024.45403958  .00015506  00000+0  58218-3 0  9998
2 38046  97.2696  89.8902 0003896 306.6149  53.4731 15.27279432668828
ARIRANG-3 (KOMPSAT-3)   
1 38338U 12025B   24024.51937797  .00001402  00000+0  28629-3 0  9991
2 38338  98.2464 330.8255 0009884 339.3979  20.6822 14.62436771623594
KANOPUS-V 1             
1 38707U 12039A   24023.82280448  .00037855  00000+0  99271-3 0  9995
2 38707  97.4898 318.0729 0002419 106.2329 253.9182 15.38567013638793
EXACTVIEW-1 (ADS-1B)    
1 38709U 12039C   24024.19193976  .00000336  00000+0  16513-3 0  9999
2 38709  98.9564 113.3399 0011182 168.5527 191.5908 14.24363132598112
SPOT 6                  
1 38755U 12047A   24024.45896740  .00000876  00000+0  19824-3 0  9994
2 38755  98.1636  93.2874 0001231  81.0697 279.0641 14.58535702605576
PLEIADES 1B             
1 39019U 12068A   24024.47778186  .00000892  00000+0  20165-3 0  9994
2 39019  98.1736 100.9632 0001237  85.2228 274.9113 14.58554338593346
GOKTURK 2               
1 39030U 12073A   24024.47905662  .00001212  00000+0  19341-3 0  9995
2 39030  97.7729 251.5629 0000923  67.0356 293.0950 14.73605166595623
LANDSAT 8               
1 39084U 13008A   24024.45020669  .00000875  00000+0  20412-3 0  9991
2 39084  98.2022  96.3638 0001005  85.3726 274.7587 14.57130550582333
SARAL                   
1 39086U 13009A   24023.92381965  .00000267  00000+0  11485-3 0  9999
2 39086  98.5463 211.0571 0002090  24.7550 335.3734 14.32333745570289
